[{"OBJECT_NAME":"ONEWEB-0521","OBJECT_ID":"2022-138AC","EPOCH":"2026-05-28T03:32:13.714080","MEAN_MOTION":13.19726447,"ECCENTRICITY":0.0002051,"INCLINATION":87.916,"RA_OF_ASC_NODE":308.9477,"ARG_OF_PERICENTER":93.5366,"MEAN_ANOMALY":266.6002,"EPHEMERIS_TYPE":0,"CLASSIFICATION_TYPE":"U","NORAD_CAT_ID":54139,"ELEMENT_SET_NO":999,"REV_AT_EPOCH":17412,"BSTAR":1.9738e-05,"MEAN_MOTION_DOT":2.1e-07,"MEAN_MOTION_DDOT":0.0},{"OBJECT_NAME":"ONEWEB-0522","OBJECT_ID":"2022-138AD","EPOCH":"2026-05-27T21:35:07.961280","MEAN_MOTION":13.19726307,"ECCENTRICITY":0.0001709,"INCLINATION":87.9162,"RA_OF_ASC_NODE":308.9994,"ARG_OF_PERICENTER":89.3082,"MEAN_ANOMALY":270.8247,"EPHEMERIS_TYPE":0,"CLASSIFICATION_TYPE":"U","NORAD_CAT_ID":54140,"ELEMENT_SET_NO":999,"REV_AT_EPOCH":17413,"BSTAR":-5.0349e-05,"MEAN_MOTION_DOT":-7e-08,"MEAN_MOTION_DDOT":0.0},{"OBJECT_NAME":"ONEWEB-0523","OBJECT_ID":"2022-138AE","EPOCH":"2026-05-27T21:04:19.066080","MEAN_MOTION":13.20772372,"ECCENTRICITY":0.0002512,"INCLINATION":87.918,"RA_OF_ASC_NODE":278.4888,"ARG_OF_PERICENTER":113.2146,"MEAN_ANOMALY":246.9252,"EPHEMERIS_TYPE":0,"CLASSIFICATION_TYPE":"U","NORAD_CAT_ID":54141,"ELEMENT_SET_NO":999,"REV_AT_EPOCH":17662,"BSTAR":-0.00012304,"MEAN_MOTION_DOT":-3.7e-07,"MEAN_MOTION_DDOT":0.0},{"OBJECT_NAME":"ONEWEB-0524","OBJECT_ID":"2022-138AF","EPOCH":"2026-05-27T20:49:46.723296","MEAN_MOTION":13.20769594,"ECCENTRICITY":0.0001834,"INCLINATION":87.918,"RA_OF_ASC_NODE":278.4879,"ARG_OF_PERICENTER":127.4653,"MEAN_ANOMALY":232.6647,"EPHEMERIS_TYPE":0,"CLASSIFICATION_TYPE":"U","NORAD_CAT_ID":54142,"ELEMENT_SET_NO":999,"REV_AT_EPOCH":17662,"BSTAR":0.00010425,"MEAN_MOTION_DOT":5.5e-07,"MEAN_MOTION_DDOT":0.0},{"OBJECT_NAME":"ONEWEB-0525","OBJECT_ID":"2022-138AG","EPOCH":"2026-05-28T03:29:55.838688","MEAN_MOTION":13.19724498,"ECCENTRICITY":0.0001467,"INCLINATION":87.9159,"RA_OF_ASC_NODE":308.9587,"ARG_OF_PERICENTER":88.7734,"MEAN_ANOMALY":271.3567,"EPHEMERIS_TYPE":0,"CLASSIFICATION_TYPE":"U","NORAD_CAT_ID":54143,"ELEMENT_SET_NO":999,"REV_AT_EPOCH":17418,"BSTAR":-7.9867e-05,"MEAN_MOTION_DOT":-1.9e-07,"MEAN_MOTION_DDOT":0.0},{"OBJECT_NAME":"ONEWEB-0526","OBJECT_ID":"2022-138AH","EPOCH":"2026-05-28T04:17:44.955456","MEAN_MOTION":13.1970812,"ECCENTRICITY":0.0002104,"INCLINATION":87.9159,"RA_OF_ASC_NODE":308.9521,"ARG_OF_PERICENTER":91.9823,"MEAN_ANOMALY":268.155,"EPHEMERIS_TYPE":0,"CLASSIFICATION_TYPE":"U","NORAD_CAT_ID":54144,"ELEMENT_SET_NO":999,"REV_AT_EPOCH":17416,"BSTAR":-0.0060098,"MEAN_MOTION_DOT":-2.392e-05,"MEAN_MOTION_DDOT":0.0},{"OBJECT_NAME":"ONEWEB-0529","OBJECT_ID":"2022-138AJ","EPOCH":"2026-05-28T04:22:15.650976","MEAN_MOTION":13.19726373,"ECCENTRICITY":0.0001588,"INCLINATION":87.9153,"RA_OF_ASC_NODE":308.9621,"ARG_OF_PERICENTER":90.1201,"MEAN_ANOMALY":270.0114,"EPHEMERIS_TYPE":0,"CLASSIFICATION_TYPE":"U","NORAD_CAT_ID":54145,"ELEMENT_SET_NO":999,"REV_AT_EPOCH":17418,"BSTAR":9.6594e-05,"MEAN_MOTION_DOT":5.2e-07,"MEAN_MOTION_DDOT":0.0},{"OBJECT_NAME":"ONEWEB-0531","OBJECT_ID":"2022-138AK","EPOCH":"2026-05-28T07:24:57.910176","MEAN_MOTION":13.20772275,"ECCENTRICITY":0.0002412,"INCLINATION":87.9176,"RA_OF_ASC_NODE":278.3981,"ARG_OF_PERICENTER":118.7661,"MEAN_ANOMALY":241.3715,"EPHEMERIS_TYPE":0,"CLASSIFICATION_TYPE":"U","NORAD_CAT_ID":54146,"ELEMENT_SET_NO":999,"REV_AT_EPOCH":17668,"BSTAR":0.00020673,"MEAN_MOTION_DOT":9.7e-07,"MEAN_MOTION_DDOT":0.0},{"OBJECT_NAME":"ONEWEB-0535","OBJECT_ID":"2022-138AL","EPOCH":"2026-05-28T03:20:49.922880","MEAN_MOTION":13.19735659,"ECCENTRICITY":0.0002191,"INCLINATION":87.9159,"RA_OF_ASC_NODE":308.9534,"ARG_OF_PERICENTER":99.3734,"MEAN_ANOMALY":260.7647,"EPHEMERIS_TYPE":0,"CLASSIFICATION_TYPE":"U","NORAD_CAT_ID":54147,"ELEMENT_SET_NO":999,"REV_AT_EPOCH":17419,"BSTAR":0.0019258,"MEAN_MOTION_DOT":7.84e-06,"MEAN_MOTION_DDOT":0.0},{"OBJECT_NAME":"ONEWEB-0536","OBJECT_ID":"2022-138AM","EPOCH":"2026-05-28T07:05:31.708032","MEAN_MOTION":13.20771083,"ECCENTRICITY":0.0002408,"INCLINATION":87.9166,"RA_OF_ASC_NODE":278.4249,"ARG_OF_PERICENTER":123.6391,"MEAN_ANOMALY":236.4972,"EPHEMERIS_TYPE":0,"CLASSIFICATION_TYPE":"U","NORAD_CAT_ID":54148,"ELEMENT_SET_NO":999,"REV_AT_EPOCH":17667,"BSTAR":-0.00018412000000000002,"MEAN_MOTION_DOT":-6.2e-07,"MEAN_MOTION_DDOT":0.0},{"OBJECT_NAME":"ONEWEB-0527","OBJECT_ID":"2022-166A","EPOCH":"2026-05-28T06:18:06.675264","MEAN_MOTION":13.21824597,"ECCENTRICITY":0.0001968,"INCLINATION":87.9253,"RA_OF_ASC_NODE":247.9593,"ARG_OF_PERICENTER":101.8405,"MEAN_ANOMALY":258.295,"EPHEMERIS_TYPE":0,"CLASSIFICATION_TYPE":"U","NORAD_CAT_ID":54642,"ELEMENT_SET_NO":999,"REV_AT_EPOCH":16890,"BSTAR":8.688200000000001e-05,"MEAN_MOTION_DOT":4.9e-07,"MEAN_MOTION_DDOT":0.0},{"OBJECT_NAME":"ONEWEB-0528","OBJECT_ID":"2022-166B","EPOCH":"2026-05-28T06:26:36.552768","MEAN_MOTION":13.21826526,"ECCENTRICITY":0.0001738,"INCLINATION":87.9256,"RA_OF_ASC_NODE":247.9624,"ARG_OF_PERICENTER":99.7069,"MEAN_ANOMALY":260.4261,"EPHEMERIS_TYPE":0,"CLASSIFICATION_TYPE":"U","NORAD_CAT_ID":54643,"ELEMENT_SET_NO":999,"REV_AT_EPOCH":16891,"BSTAR":3.6830000000000005e-05,"MEAN_MOTION_DOT":2.8e-07,"MEAN_MOTION_DDOT":0.0},{"OBJECT_NAME":"ONEWEB-0539","OBJECT_ID":"2022-166C","EPOCH":"2026-05-28T05:33:20.220192","MEAN_MOTION":13.21825483,"ECCENTRICITY":0.0002112,"INCLINATION":87.9262,"RA_OF_ASC_NODE":247.9404,"ARG_OF_PERICENTER":94.8257,"MEAN_ANOMALY":265.3118,"EPHEMERIS_TYPE":0,"CLASSIFICATION_TYPE":"U","NORAD_CAT_ID":54644,"ELEMENT_SET_NO":999,"REV_AT_EPOCH":16890,"BSTAR":0.00024598,"MEAN_MOTION_DOT":1.15e-06,"MEAN_MOTION_DDOT":0.0},{"OBJECT_NAME":"ONEWEB-0540","OBJECT_ID":"2022-166D","EPOCH":"2026-05-28T05:43:13.224000","MEAN_MOTION":13.21825437,"ECCENTRICITY":0.0002072,"INCLINATION":87.9256,"RA_OF_ASC_NODE":247.9705,"ARG_OF_PERICENTER":97.945,"MEAN_ANOMALY":262.1919,"EPHEMERIS_TYPE":0,"CLASSIFICATION_TYPE":"U","NORAD_CAT_ID":54645,"ELEMENT_SET_NO":999,"REV_AT_EPOCH":16889,"BSTAR":0.00017846000000000002,"MEAN_MOTION_DOT":8.7e-07,"MEAN_MOTION_DDOT":0.0},{"OBJECT_NAME":"ONEWEB-0542","OBJECT_ID":"2022-166E","EPOCH":"2026-05-28T05:47:52.309824","MEAN_MOTION":13.21825153,"ECCENTRICITY":0.0002216,"INCLINATION":87.9265,"RA_OF_ASC_NODE":247.9367,"ARG_OF_PERICENTER":94.5103,"MEAN_ANOMALY":265.6284,"EPHEMERIS_TYPE":0,"CLASSIFICATION_TYPE":"U","NORAD_CAT_ID":54646,"ELEMENT_SET_NO":999,"REV_AT_EPOCH":16890,"BSTAR":0.00019838,"MEAN_MOTION_DOT":9.5e-07,"MEAN_MOTION_DDOT":0.0},{"OBJECT_NAME":"ONEWEB-0545","OBJECT_ID":"2022-166F","EPOCH":"2026-05-28T06:46:00.568128","MEAN_MOTION":13.21827015,"ECCENTRICITY":0.0002439,"INCLINATION":87.9256,"RA_OF_ASC_NODE":247.9422,"ARG_OF_PERICENTER":93.0603,"MEAN_ANOMALY":267.081,"EPHEMERIS_TYPE":0,"CLASSIFICATION_TYPE":"U","NORAD_CAT_ID":54647,"ELEMENT_SET_NO":999,"REV_AT_EPOCH":16887,"BSTAR":5.1508e-05,"MEAN_MOTION_DOT":3.4e-07,"MEAN_MOTION_DDOT":0.0}]