ONEWEB-0521             
1 54139U 22138AC  26148.14738095  .00000021  00000+0  19738-4 0  9990
2 54139  87.9160 308.9477 0002051  93.5366 266.6002 13.19726447174124
ONEWEB-0522             
1 54140U 22138AD  26147.89939770 -.00000007  00000+0 -50349-4 0  9995
2 54140  87.9162 308.9994 0001709  89.3082 270.8247 13.19726307174133
ONEWEB-0523             
1 54141U 22138AE  26147.87799845 -.00000037  00000+0 -12304-3 0  9992
2 54141  87.9180 278.4888 0002512 113.2146 246.9252 13.20772372176629
ONEWEB-0524             
1 54142U 22138AF  26147.86790189  .00000055  00000+0  10425-3 0  9994
2 54142  87.9180 278.4879 0001834 127.4653 232.6647 13.20769594176628
ONEWEB-0525             
1 54143U 22138AG  26148.14578517 -.00000019  00000+0 -79867-4 0  9994
2 54143  87.9159 308.9587 0001467  88.7734 271.3567 13.19724498174183
ONEWEB-0526             
1 54144U 22138AH  26148.17899254 -.00002392  00000+0 -60098-2 0  9992
2 54144  87.9159 308.9521 0002104  91.9823 268.1550 13.19708120174164
ONEWEB-0529             
1 54145U 22138AJ  26148.18212559  .00000052  00000+0  96594-4 0  9992
2 54145  87.9153 308.9621 0001588  90.1201 270.0114 13.19726373174186
ONEWEB-0531             
1 54146U 22138AK  26148.30900359  .00000097  00000+0  20673-3 0  9992
2 54146  87.9176 278.3981 0002412 118.7661 241.3715 13.20772275176684
ONEWEB-0535             
1 54147U 22138AL  26148.13946670  .00000784  00000+0  19258-2 0  9999
2 54147  87.9159 308.9534 0002191  99.3734 260.7647 13.19735659174195
ONEWEB-0536             
1 54148U 22138AM  26148.29550588 -.00000062  00000+0 -18412-3 0  9999
2 54148  87.9166 278.4249 0002408 123.6391 236.4972 13.20771083176678
ONEWEB-0527             
1 54642U 22166A   26148.26257726  .00000049  00000+0  86882-4 0  9994
2 54642  87.9253 247.9593 0001968 101.8405 258.2950 13.21824597168906
ONEWEB-0528             
1 54643U 22166B   26148.26847862  .00000028  00000+0  36830-4 0  9996
2 54643  87.9256 247.9624 0001738  99.7069 260.4261 13.21826526168916
ONEWEB-0539             
1 54644U 22166C   26148.23148403  .00000115  00000+0  24598-3 0  9993
2 54644  87.9262 247.9404 0002112  94.8257 265.3118 13.21825483168907
ONEWEB-0540             
1 54645U 22166D   26148.23834750  .00000087  00000+0  17846-3 0  9997
2 54645  87.9256 247.9705 0002072  97.9450 262.1919 13.21825437168890
ONEWEB-0542             
1 54646U 22166E   26148.24157766  .00000095  00000+0  19838-3 0  9996
2 54646  87.9265 247.9367 0002216  94.5103 265.6284 13.21825153168903
ONEWEB-0545             
1 54647U 22166F   26148.28195102  .00000034  00000+0  51508-4 0  9991
2 54647  87.9256 247.9422 0002439  93.0603 267.0810 13.21827015168878
